[
    {
        "Altitude(m)": 554716.0139400348,
        "Argument of Periapsis(deg)": 0.019868973332140504,
        "Eccentricity": 0.0,
        "Inclination(deg)": 53.0,
        "Latitude(deg)": 27.89623437280804,
        "Longitude(deg)": 10.994033446860369,
        "Mean Anomaly(deg)": 35.72937860273276,
        "RAAN(deg)": 89.97043010558404,
        "Satellite Name": "Starlink Shell 1 396",
        "Satellite Number": 396,
        "Semi-Major Axis(m)": 6931778.249405717,
        "Time(s)": 570
    },
    {
        "Altitude(m)": 554784.4552648505,
        "Argument of Periapsis(deg)": 0.02021755181165174,
        "Eccentricity": 0.0,
        "Inclination(deg)": 53.0,
        "Latitude(deg)": 28.357127806991823,
        "Longitude(deg)": 11.436438819503634,
        "Mean Anomaly(deg)": 36.35620980628948,
        "RAAN(deg)": 89.96991133550658,
        "Satellite Name": "Starlink Shell 1 396",
        "Satellite Number": 396,
        "Semi-Major Axis(m)": 6931778.249405717,
        "Time(s)": 580
    },
    {
        "Altitude(m)": 554854.1499326258,
        "Argument of Periapsis(deg)": 0.020566130291162974,
        "Eccentricity": 0.0,
        "Inclination(deg)": 53.0,
        "Latitude(deg)": 28.816260082209283,
        "Longitude(deg)": 11.883029026557322,
        "Mean Anomaly(deg)": 36.98304100984618,
        "RAAN(deg)": 89.9693925654291,
        "Satellite Name": "Starlink Shell 1 396",
        "Satellite Number": 396,
        "Semi-Major Axis(m)": 6931778.249405717,
        "Time(s)": 590
    },
    {
        "Altitude(m)": 554925.045426457,
        "Argument of Periapsis(deg)": 0.020914708770674213,
        "Eccentricity": 0.0,
        "Inclination(deg)": 53.0,
        "Latitude(deg)": 29.27358252106089,
        "Longitude(deg)": 12.333905080350103,
        "Mean Anomaly(deg)": 37.609872213402895,
        "RAAN(deg)": 89.96887379535163,
        "Satellite Name": "Starlink Shell 1 396",
        "Satellite Number": 396,
        "Semi-Major Axis(m)": 6931778.249405717,
        "Time(s)": 600
    },
    {
        "Altitude(m)": 554997.0888158848,
        "Argument of Periapsis(deg)": 0.021263287250185448,
        "Eccentricity": 0.0,
        "Inclination(deg)": 53.0,
        "Latitude(deg)": 29.72904535917405,
        "Longitude(deg)": 12.78916931240336,
        "Mean Anomaly(deg)": 38.23670341695964,
        "RAAN(deg)": 89.96835502527416,
        "Satellite Name": "Starlink Shell 1 396",
        "Satellite Number": 396,
        "Semi-Major Axis(m)": 6931778.249405717,
        "Time(s)": 610
    },
    {
        "Altitude(m)": 555070.2267848997,
        "Argument of Periapsis(deg)": 0.021611865729696686,
        "Eccentricity": 0.0,
        "Inclination(deg)": 53.0,
        "Latitude(deg)": 30.182597714260783,
        "Longitude(deg)": 13.248925870868847,
        "Mean Anomaly(deg)": 38.86353462051635,
        "RAAN(deg)": 89.96783625519669,
        "Satellite Name": "Starlink Shell 1 396",
        "Satellite Number": 396,
        "Semi-Major Axis(m)": 6931778.249405717,
        "Time(s)": 620
    },
    {
        "Altitude(m)": 555144.4056601186,
        "Argument of Periapsis(deg)": 0.02196044420920792,
        "Eccentricity": 0.0,
        "Inclination(deg)": 53.0,
        "Latitude(deg)": 30.63418755477095,
        "Longitude(deg)": 13.71327953336963,
        "Mean Anomaly(deg)": 39.49036582407306,
        "RAAN(deg)": 89.96731748511921,
        "Satellite Name": "Starlink Shell 1 396",
        "Satellite Number": 396,
        "Semi-Major Axis(m)": 6931778.249405717,
        "Time(s)": 630
    },
    {
        "Altitude(m)": 555219.571439091,
        "Argument of Periapsis(deg)": 0.02230902268871916,
        "Eccentricity": 0.0,
        "Inclination(deg)": 53.0,
        "Latitude(deg)": 31.08376166818041,
        "Longitude(deg)": 14.18233703737173,
        "Mean Anomaly(deg)": 40.11719702762976,
        "RAAN(deg)": 89.96679871504175,
        "Satellite Name": "Starlink Shell 1 396",
        "Satellite Number": 396,
        "Semi-Major Axis(m)": 6931778.249405717,
        "Time(s)": 640
    },
    {
        "Altitude(m)": 555295.669818723,
        "Argument of Periapsis(deg)": 0.022657601168230398,
        "Eccentricity": 0.0,
        "Inclination(deg)": 53.0,
        "Latitude(deg)": 31.531265628942403,
        "Longitude(deg)": 14.656205884858784,
        "Mean Anomaly(deg)": 40.74402823118646,
        "RAAN(deg)": 89.96627994496427,
        "Satellite Name": "Starlink Shell 1 396",
        "Satellite Number": 396,
        "Semi-Major Axis(m)": 6931778.249405717,
        "Time(s)": 650
    },
    {
        "Altitude(m)": 555372.6462238008,
        "Argument of Periapsis(deg)": 0.023006179647741636,
        "Eccentricity": 0.0,
        "Inclination(deg)": 53.0,
        "Latitude(deg)": 31.976643766150946,
        "Longitude(deg)": 15.134994823401302,
        "Mean Anomaly(deg)": 41.370859434743195,
        "RAAN(deg)": 89.9657611748868,
        "Satellite Name": "Starlink Shell 1 396",
        "Satellite Number": 396,
        "Semi-Major Axis(m)": 6931778.249405717,
        "Time(s)": 660
    },
    {
        "Altitude(m)": 555450.4458356,
        "Argument of Periapsis(deg)": 0.023354758127252868,
        "Eccentricity": 0.0,
        "Inclination(deg)": 53.0,
        "Latitude(deg)": 32.419839130961385,
        "Longitude(deg)": 15.618814322295593,
        "Mean Anomaly(deg)": 41.997690638299915,
        "RAAN(deg)": 89.96524240480933,
        "Satellite Name": "Starlink Shell 1 396",
        "Satellite Number": 396,
        "Semi-Major Axis(m)": 6931778.249405717,
        "Time(s)": 670
    },
    {
        "Altitude(m)": 555529.0136206027,
        "Argument of Periapsis(deg)": 0.023703336606764106,
        "Eccentricity": 0.0,
        "Inclination(deg)": 53.0,
        "Latitude(deg)": 32.86079346381857,
        "Longitude(deg)": 16.10777553052583,
        "Mean Anomaly(deg)": 42.62452184185663,
        "RAAN(deg)": 89.96472363473185,
        "Satellite Name": "Starlink Shell 1 396",
        "Satellite Number": 396,
        "Semi-Major Axis(m)": 6931778.249405717,
        "Time(s)": 680
    },
    {
        "Altitude(m)": 555608.2943592058,
        "Argument of Periapsis(deg)": 0.024051915086275345,
        "Eccentricity": 0.0,
        "Inclination(deg)": 53.0,
        "Latitude(deg)": 33.299447161558014,
        "Longitude(deg)": 16.601990741902437,
        "Mean Anomaly(deg)": 43.25135304541334,
        "RAAN(deg)": 89.96420486465438,
        "Satellite Name": "Starlink Shell 1 396",
        "Satellite Number": 396,
        "Semi-Major Axis(m)": 6931778.249405717,
        "Time(s)": 690
    },
    {
        "Altitude(m)": 555688.2326745512,
        "Argument of Periapsis(deg)": 0.024400493565786583,
        "Eccentricity": 0.0,
        "Inclination(deg)": 53.0,
        "Latitude(deg)": 33.73573924444479,
        "Longitude(deg)": 17.10157385408985,
        "Mean Anomaly(deg)": 43.87818424897006,
        "RAAN(deg)": 89.96368609457691,
        "Satellite Name": "Starlink Shell 1 396",
        "Satellite Number": 396,
        "Semi-Major Axis(m)": 6931778.249405717,
        "Time(s)": 700
    },
    {
        "Altitude(m)": 555768.7730613486,
        "Argument of Periapsis(deg)": 0.024749072045297815,
        "Eccentricity": 0.0,
        "Inclination(deg)": 53.0,
        "Latitude(deg)": 34.16960732322099,
        "Longitude(deg)": 17.606639308215268,
        "Mean Anomaly(deg)": 44.505015452526784,
        "RAAN(deg)": 89.96316732449944,
        "Satellite Name": "Starlink Shell 1 396",
        "Satellite Number": 396,
        "Semi-Major Axis(m)": 6931778.249405717,
        "Time(s)": 710
    },
    {
        "Altitude(m)": 555849.8599147074,
        "Argument of Periapsis(deg)": 0.025097650524809053,
        "Eccentricity": 0.0,
        "Inclination(deg)": 53.0,
        "Latitude(deg)": 34.60098756625048,
        "Longitude(deg)": 18.11730253435277,
        "Mean Anomaly(deg)": 45.1318466560835,
        "RAAN(deg)": 89.96264855442196,
        "Satellite Name": "Starlink Shell 1 396",
        "Satellite Number": 396,
        "Semi-Major Axis(m)": 6931778.249405717,
        "Time(s)": 720
    },
    {
        "Altitude(m)": 555931.4375589971,
        "Argument of Periapsis(deg)": 0.02544622900432029,
        "Eccentricity": 0.0,
        "Inclination(deg)": 53.0,
        "Latitude(deg)": 35.029814666848644,
        "Longitude(deg)": 18.633680389532636,
        "Mean Anomaly(deg)": 45.75867785964019,
        "RAAN(deg)": 89.9621297843445,
        "Satellite Name": "Starlink Shell 1 396",
        "Satellite Number": 396,
        "Semi-Major Axis(m)": 6931778.249405717,
        "Time(s)": 730
    },
    {
        "Altitude(m)": 556013.4502766825,
        "Argument of Periapsis(deg)": 0.02579480748383153,
        "Eccentricity": 0.0,
        "Inclination(deg)": 53.0,
        "Latitude(deg)": 35.456021810894576,
        "Longitude(deg)": 19.15589007490857,
        "Mean Anomaly(deg)": 46.3855090631969,
        "RAAN(deg)": 89.96161101426702,
        "Satellite Name": "Starlink Shell 1 396",
        "Satellite Number": 396,
        "Semi-Major Axis(m)": 6931778.249405717,
        "Time(s)": 740
    },
    {
        "Altitude(m)": 556095.8423371287,
        "Argument of Periapsis(deg)": 0.026143385963342765,
        "Eccentricity": 0.0,
        "Inclination(deg)": 53.0,
        "Latitude(deg)": 35.87954064484066,
        "Longitude(deg)": 19.68404955731549,
        "Mean Anomaly(deg)": 47.01234026675362,
        "RAAN(deg)": 89.96109224418953,
        "Satellite Name": "Starlink Shell 1 396",
        "Satellite Number": 396,
        "Semi-Major Axis(m)": 6931778.249405717,
        "Time(s)": 750
    }
]